[Satellite]
VERSION=1.1
NAME=MIRATA
NICKNAME=MIRATA
TLE1=1 43015U 17073C   19317.70484086  .00001534  00000-0  12361-3 0  9998
TLE2=2 43015  97.7189 233.1556 0255616  35.6267 326.1710 14.79219422107172
STATUS=0
